{
    "links": {
        "self": "http://www.neowsapp.com/rest/v1/neo/3761396?api_key=iIulBulltgU6a56xZRHN4H3l9WmuAYTsLGpBGhQ2"
    },
    "id": "3761396",
    "neo_reference_id": "3761396",
    "name": "(2016 UZ5)",
    "designation": "2016 UZ5",
    "nasa_jpl_url": "http://ssd.jpl.nasa.gov/sbdb.cgi?sstr=3761396",
    "absolute_magnitude_h": 25.6,
    "estimated_diameter": {
        "kilometers": {
            "estimated_diameter_min": 0.0201629919,
            "estimated_diameter_max": 0.0450858206
        },
        "meters": {
            "estimated_diameter_min": 20.1629919443,
            "estimated_diameter_max": 45.0858206172
        },
        "miles": {
            "estimated_diameter_min": 0.0125286985,
            "estimated_diameter_max": 0.0280150214
        },
        "feet": {
            "estimated_diameter_min": 66.1515504905,
            "estimated_diameter_max": 147.9193637137
        }
    },
    "is_potentially_hazardous_asteroid": false,
    "close_approach_data": [
        {
            "close_approach_date": "2016-10-20",
            "close_approach_date_full": "2016-Oct-20 08:54",
            "epoch_date_close_approach": 1476953640000,
            "relative_velocity": {
                "kilometers_per_second": "9.9460750416",
                "kilometers_per_hour": "35805.8701496872",
                "miles_per_hour": "22248.3752605098"
            },
            "miss_distance": {
                "astronomical": "0.0432759668",
                "lunar": "16.8343510852",
                "kilometers": "6473992.455470716",
                "miles": "4022752.3743232408"
            },
            "orbiting_body": "Earth"
        }
    ],
    "orbital_data": {
        "orbit_id": "4",
        "orbit_determination_date": "2017-04-06 08:22:52",
        "first_observation_date": "2016-10-21",
        "last_observation_date": "2016-10-30",
        "data_arc_in_days": 9,
        "observations_used": 41,
        "orbit_uncertainty": "8",
        "minimum_orbit_intersection": ".0432738",
        "jupiter_tisserand_invariant": "3.309",
        "epoch_osculation": "2457686.5",
        "eccentricity": ".5600823820491335",
        "semi_major_axis": "2.34133252139809",
        "inclination": "12.11552141500221",
        "ascending_node_longitude": "31.39553695489161",
        "orbital_period": "1308.558290252862",
        "perihelion_distance": "1.029993425644344",
        "perihelion_argument": "345.5385512597353",
        "aphelion_distance": "3.652671617151837",
        "perihelion_time": "2457673.175001257842",
        "mean_anomaly": "3.665866154307823",
        "mean_motion": ".2751119324844403",
        "equinox": "J2000",
        "orbit_class": {
            "orbit_class_type": "AMO",
            "orbit_class_description": "Near-Earth asteroid orbits similar to that of 1221 Amor",
            "orbit_class_range": "1.017 AU < q (perihelion) < 1.3 AU"
        }
    },
    "is_sentry_object": false
}